KUIPER-00301            
1 68598U 26072AB  26099.50624667  .00018553  00000+0  52341-3 0  9994
2 68598  51.8646 149.1136 0008969 132.6902 227.4841 15.36405426   811
